{
  "norad_id": 58102,
  "name": "STARLINK-30592",
  "history": [
    {
      "epoch": "2026-03-28T16:42:10.900800Z",
      "apogee_km": 476.25081689280705,
      "perigee_km": 474.21495483451235,
      "latitude_deg": 5.931557338477504e-06,
      "longitude_deg": 0.4424795873343862,
      "height_km": 476.1234828076893,
      "semi_major_axis_km": 6853.36988586366,
      "eccentricity": 0.00014853,
      "inclination_deg": 53.1609,
      "raan_deg": 77.1006,
      "arg_perigee_deg": 89.5906,
      "mean_anomaly_deg": 270.5265,
      "mean_motion_rev_day": 15.30194033
    },
    {
      "epoch": "2026-03-29T05:14:36.822336Z",
      "apogee_km": 476.3101164945783,
      "perigee_km": 474.1773444112605,
      "latitude_deg": -5.961204480120727e-05,
      "longitude_deg": 169.39200292814712,
      "height_km": 476.2046860662995,
      "semi_major_axis_km": 6853.380730452919,
      "eccentricity": 0.0001556,
      "inclination_deg": 53.1612,
      "raan_deg": 74.6732,
      "arg_perigee_deg": 93.3945,
      "mean_anomaly_deg": 266.7233,
      "mean_motion_rev_day": 15.30190401
    }
  ]
}